STARLINK-1351           
1 45697U 20035AS  26068.13970887  .00110196  00000+0  17672-2 0  9998
2 45697  53.0537  24.2744 0003591 121.7896 238.3464 15.52242010319286
FLOCK 4Q-26             
1 58284U 23174AE  26068.73049739  .00032914  00000+0  56917-3 0  9997
2 58284  97.3894 158.0869 0007335 149.9195 210.2479 15.50866575130380
